{
  "norad_id": 60535,
  "name": "NIGHTJAR",
  "history": [
    {
      "epoch": "2026-04-10T11:55:33.799008Z",
      "apogee_km": 572.4685420085953,
      "perigee_km": 569.6624540398934,
      "latitude_deg": 1.2067086722824653e-05,
      "longitude_deg": 160.53715241894983,
      "height_km": 574.0694004349309,
      "semi_major_axis_km": 6949.202498024244,
      "eccentricity": 0.0002019,
      "inclination_deg": 97.6867,
      "raan_deg": 178.1579,
      "arg_perigee_deg": 88.1211,
      "mean_anomaly_deg": 272.0243,
      "mean_motion_rev_day": 14.98650322
    },
    {
      "epoch": "2026-04-11T18:22:20.387136Z",
      "apogee_km": 572.4332119689498,
      "perigee_km": 569.6521502605665,
      "latitude_deg": 4.6972625744671956e-05,
      "longitude_deg": 63.8432440793213,
      "height_km": 574.0100183711986,
      "semi_major_axis_km": 6949.179681114758,
      "eccentricity": 0.0002001,
      "inclination_deg": 97.687,
      "raan_deg": 179.4085,
      "arg_perigee_deg": 86.5949,
      "mean_anomaly_deg": 273.5503,
      "mean_motion_rev_day": 14.98657703
    },
    {
      "epoch": "2026-04-13T04:01:23.910240Z",
      "apogee_km": 572.3931758628032,
      "perigee_km": 569.6532609718843,
      "latitude_deg": -5.7060212457929585e-05,
      "longitude_deg": -80.92111891712511,
      "height_km": 573.9470196740216,
      "semi_major_axis_km": 6949.1602184173435,
      "eccentricity": 0.00019714,
      "inclination_deg": 97.6873,
      "raan_deg": 180.7908,
      "arg_perigee_deg": 84.7147,
      "mean_anomaly_deg": 275.43,
      "mean_motion_rev_day": 14.98663999
    },
    {
      "epoch": "2026-04-14T18:28:52.940352Z",
      "apogee_km": 572.3495595007898,
      "perigee_km": 569.6505146755853,
      "latitude_deg": -2.2400183109029376e-05,
      "longitude_deg": 62.208402719486145,
      "height_km": 573.8728542439849,
      "semi_major_axis_km": 6949.137037088188,
      "eccentricity": 0.0001942,
      "inclination_deg": 97.688,
      "raan_deg": 182.3707,
      "arg_perigee_deg": 82.4542,
      "mean_anomaly_deg": 277.6901,
      "mean_motion_rev_day": 14.98671498
    },
    {
      "epoch": "2026-04-15T18:31:03.266112Z",
      "apogee_km": 572.3120949182585,
      "perigee_km": 569.6630886238754,
      "latitude_deg": -1.8892013322849278e-05,
      "longitude_deg": 61.66574841669552,
      "height_km": 573.8252034328732,
      "semi_major_axis_km": 6949.124591771067,
      "eccentricity": 0.0001906,
      "inclination_deg": 97.6882,
      "raan_deg": 183.3582,
      "arg_perigee_deg": 80.7681,
      "mean_anomaly_deg": 279.3757,
      "mean_motion_rev_day": 14.98675524
    },
    {
      "epoch": "2026-04-16T15:20:56.072832Z",
      "apogee_km": 572.2406276861539,
      "perigee_km": 569.7125401643216,
      "latitude_deg": -3.693854212670284e-05,
      "longitude_deg": 109.19611196860926,
      "height_km": 573.760884433898,
      "semi_major_axis_km": 6949.113583925237,
      "eccentricity": 0.0001819,
      "inclination_deg": 97.688,
      "raan_deg": 184.2141,
      "arg_perigee_deg": 77.8529,
      "mean_anomaly_deg": 282.2897,
      "mean_motion_rev_day": 14.98679085
    },
    {
      "epoch": "2026-04-17T16:59:14.622432Z",
      "apogee_km": 572.1838824928036,
      "perigee_km": 569.7423856516998,
      "latitude_deg": 1.074315427419347e-05,
      "longitude_deg": 84.61918186222006,
      "height_km": 573.7177050200606,
      "semi_major_axis_km": 6949.100134072251,
      "eccentricity": 0.00017567,
      "inclination_deg": 97.688,
      "raan_deg": 185.2674,
      "arg_perigee_deg": 75.9755,
      "mean_anomaly_deg": 284.1663,
      "mean_motion_rev_day": 14.98683436
    },
    {
      "epoch": "2026-04-18T15:25:15.534624Z",
      "apogee_km": 572.1183089778369,
      "perigee_km": 569.777857121866,
      "latitude_deg": -4.572542867549845e-05,
      "longitude_deg": 108.1156743071343,
      "height_km": 573.6840986680185,
      "semi_major_axis_km": 6949.085083049851,
      "eccentricity": 0.0001684,
      "inclination_deg": 97.688,
      "raan_deg": 186.189,
      "arg_perigee_deg": 74.408,
      "mean_anomaly_deg": 285.7328,
      "mean_motion_rev_day": 14.98688305
    },
    {
      "epoch": "2026-04-19T15:27:24.954048Z",
      "apogee_km": 572.0459287921367,
      "perigee_km": 569.8291740102386,
      "latitude_deg": -7.415015461793297e-06,
      "longitude_deg": 107.57679936678419,
      "height_km": 573.6583434772978,
      "semi_major_axis_km": 6949.074551401187,
      "eccentricity": 0.0001595,
      "inclination_deg": 97.6879,
      "raan_deg": 187.1765,
      "arg_perigee_deg": 72.6823,
      "mean_anomaly_deg": 287.4574,
      "mean_motion_rev_day": 14.98691712
    },
    {
      "epoch": "2026-04-20T10:41:08.424096Z",
      "apogee_km": 571.9946209435611,
      "perigee_km": 569.8704293711107,
      "latitude_deg": 7.450279705361006e-05,
      "longitude_deg": 179.14596537681257,
      "height_km": 573.6388136189584,
      "semi_major_axis_km": 6949.069525157336,
      "eccentricity": 0.00015284,
      "inclination_deg": 97.6878,
      "raan_deg": 187.9665,
      "arg_perigee_deg": 71.0702,
      "mean_anomaly_deg": 289.0687,
      "mean_motion_rev_day": 14.98693338
    },
    {
      "epoch": "2026-04-21T10:43:17.280192Z",
      "apogee_km": 571.9093179743677,
      "perigee_km": 569.9204993181138,
      "latitude_deg": -6.046678954044089e-05,
      "longitude_deg": 178.60936574223535,
      "height_km": 573.608544243845,
      "semi_major_axis_km": 6949.05190864624,
      "eccentricity": 0.0001431,
      "inclination_deg": 97.6876,
      "raan_deg": 188.9539,
      "arg_perigee_deg": 68.9347,
      "mean_anomaly_deg": 291.2028,
      "mean_motion_rev_day": 14.98699037
    },
    {
      "epoch": "2026-04-22T17:10:00.333696Z",
      "apogee_km": 571.7987468995125,
      "perigee_km": 570.004505126276,
      "latitude_deg": -4.657071136875883e-05,
      "longitude_deg": 81.9305273496307,
      "height_km": 573.6276288866146,
      "semi_major_axis_km": 6949.0386260128935,
      "eccentricity": 0.0001291,
      "inclination_deg": 97.6868,
      "raan_deg": 190.2048,
      "arg_perigee_deg": 68.7392,
      "mean_anomaly_deg": 291.3968,
      "mean_motion_rev_day": 14.98703334
    },
    {
      "epoch": "2026-04-23T02:46:51.739104Z",
      "apogee_km": 571.7590149560383,
      "perigee_km": 570.033986879771,
      "latitude_deg": -1.7056460769295346e-05,
      "longitude_deg": -62.283511129774325,
      "height_km": 573.6202992924245,
      "semi_major_axis_km": 6949.033500917904,
      "eccentricity": 0.00012412,
      "inclination_deg": 97.6866,
      "raan_deg": 190.5998,
      "arg_perigee_deg": 67.677,
      "mean_anomaly_deg": 292.4584,
      "mean_motion_rev_day": 14.98704992
    },
    {
      "epoch": "2026-04-24T18:50:25.589760Z",
      "apogee_km": 571.6064730799344,
      "perigee_km": 570.1485698333336,
      "latitude_deg": 3.6656743436532493e-06,
      "longitude_deg": 56.82585818942288,
      "height_km": 573.6136666758888,
      "semi_major_axis_km": 6949.014521456634,
      "eccentricity": 0.0001049,
      "inclination_deg": 97.6861,
      "raan_deg": 192.2454,
      "arg_perigee_deg": 64.344,
      "mean_anomaly_deg": 295.7891,
      "mean_motion_rev_day": 14.98711132
    },
    {
      "epoch": "2026-04-25T18:52:33.570624Z",
      "apogee_km": 571.4937379372832,
      "perigee_km": 570.2276305592131,
      "latitude_deg": 4.4248941030276e-05,
      "longitude_deg": 56.29269393011149,
      "height_km": 573.6243502291177,
      "semi_major_axis_km": 6948.997684248248,
      "eccentricity": 9.11e-05,
      "inclination_deg": 97.6859,
      "raan_deg": 193.2326,
      "arg_perigee_deg": 62.9065,
      "mean_anomaly_deg": 297.2251,
      "mean_motion_rev_day": 14.98716579
    },
    {
      "epoch": "2026-04-26T18:54:41.232672Z",
      "apogee_km": 571.3782039202861,
      "perigee_km": 570.3000007882456,
      "latitude_deg": 6.265782986453159e-05,
      "longitude_deg": 55.76106534861429,
      "height_km": 573.6298131753554,
      "semi_major_axis_km": 6948.976102354266,
      "eccentricity": 7.758e-05,
      "inclination_deg": 97.6858,
      "raan_deg": 194.22,
      "arg_perigee_deg": 60.983,
      "mean_anomaly_deg": 299.1471,
      "mean_motion_rev_day": 14.98723561
    },
    {
      "epoch": "2026-04-27T18:56:48.596640Z",
      "apogee_km": 571.2703793252313,
      "perigee_km": 570.3781326999597,
      "latitude_deg": 5.61770983144864e-05,
      "longitude_deg": 55.230685849594764,
      "height_km": 573.6346491259341,
      "semi_major_axis_km": 6948.961256012595,
      "eccentricity": 6.42e-05,
      "inclination_deg": 97.6856,
      "raan_deg": 195.2074,
      "arg_perigee_deg": 57.141,
      "mean_anomaly_deg": 302.9875,
      "mean_motion_rev_day": 14.98728364
    },
    {
      "epoch": "2026-04-28T18:58:55.667712Z",
      "apogee_km": 571.161339893808,
      "perigee_km": 570.4608859240279,
      "latitude_deg": 3.3800677372708544e-05,
      "longitude_deg": 54.70133219222395,
      "height_km": 573.6690655591202,
      "semi_major_axis_km": 6948.948112908918,
      "eccentricity": 5.04e-05,
      "inclination_deg": 97.6853,
      "raan_deg": 196.1946,
      "arg_perigee_deg": 56.2237,
      "mean_anomaly_deg": 303.9034,
      "mean_motion_rev_day": 14.98732616
    }
  ]
}